     3.02           N: GNSS NAV DATA    E: GALILEO NAV DATA RINEX VERSION / TYPE
NetR9 5.43          SMO                 20210518 040344 UTC PGM / RUN BY / DATE
GAL     .4175D+02   .1172D+00   .1053D-01   .0000D+00       IONOSPHERIC CORR
GAUT   .9313225746D-09  .000000000D+00 172800 2158          TIME SYSTEM CORR
GPGA   .3055902198D-08 -.222044605D-14 172800 2158          TIME SYSTEM CORR
    18    18  2185     7                                    LEAP SECONDS
                                                            END OF HEADER
E 2 2021 05 18 02 40 00  .219809298869D-03  .257216470345D-11  .000000000000D+00
      .480000000000D+02  .670000000000D+02  .279547358555D-08  .248356782396D+01
      .301189720631D-05  .254087266512D-03  .868178904057D-05  .544060328293D+04
      .182400000000D+06  .540167093277D-07  .678749416592D+00 -.335276126862D-07
      .978338707208D+00  .161687500000D+03  .382811974730D+00 -.534057959943D-08
     -.485377360772D-09  .513000000000D+03  .215800000000D+04
      .312000000000D+01  .000000000000D+00 -.116415321827D-08 -.186264514923D-08
      .183085000000D+06
E 2 2021 05 18 02 40 00  .219809298869D-03  .257216470345D-11  .000000000000D+00
      .480000000000D+02  .670000000000D+02  .279547358555D-08  .248356782396D+01
      .301189720631D-05  .254087266512D-03  .868178904057D-05  .544060328293D+04
      .182400000000D+06  .540167093277D-07  .678749416592D+00 -.335276126862D-07
      .978338707208D+00  .161687500000D+03  .382811974730D+00 -.534057959943D-08
     -.485377360772D-09  .516000000000D+03  .215800000000D+04
      .312000000000D+01  .000000000000D+00 -.116415321827D-08 -.186264514923D-08
      .183064000000D+06
E 2 2021 05 18 02 40 00  .219810463022D-03  .257216470345D-11  .000000000000D+00
      .480000000000D+02  .670000000000D+02  .279547358555D-08  .248356782396D+01
      .301189720631D-05  .254087266512D-03  .868178904057D-05  .544060328293D+04
      .182400000000D+06  .540167093277D-07  .678749416592D+00 -.335276126862D-07
      .978338707208D+00  .161687500000D+03  .382811974730D+00 -.534057959943D-08
     -.485377360772D-09  .258000000000D+03  .215800000000D+04
      .312000000000D+01  .000000000000D+00 -.116415321827D-08  .000000000000D+00
      .183120000000D+06
E 2 2021 05 18 02 50 00  .219810870476D-03  .257216470345D-11  .000000000000D+00
      .490000000000D+02  .678750000000D+02  .279297348141D-08  .255793784804D+01
      .306218862534D-05  .253918231465D-03  .862218439579D-05  .544060361862D+04
      .183000000000D+06  .558793544769D-07  .678746206950D+00 -.279396772385D-07
      .978338439494D+00  .162687500000D+03  .382827642582D+00 -.533736517983D-08
     -.486448833975D-09  .513000000000D+03  .215800000000D+04
      .312000000000D+01  .000000000000D+00 -.116415321827D-08 -.186264514923D-08
      .183685000000D+06
E 2 2021 05 18 02 50 00  .219810870476D-03  .257216470345D-11  .000000000000D+00
      .490000000000D+02  .678750000000D+02  .279297348141D-08  .255793784804D+01
      .306218862534D-05  .253918231465D-03  .862218439579D-05  .544060361862D+04
      .183000000000D+06  .558793544769D-07  .678746206950D+00 -.279396772385D-07
      .978338439494D+00  .162687500000D+03  .382827642582D+00 -.533736517983D-08
     -.486448833975D-09  .516000000000D+03  .215800000000D+04
      .312000000000D+01  .000000000000D+00 -.116415321827D-08 -.186264514923D-08
      .183664000000D+06
E 2 2021 05 18 02 50 00  .219812092837D-03  .257216470345D-11  .000000000000D+00
      .490000000000D+02  .678750000000D+02  .279297348141D-08  .255793784804D+01
      .306218862534D-05  .253918231465D-03  .862218439579D-05  .544060361862D+04
      .183000000000D+06  .558793544769D-07  .678746206950D+00 -.279396772385D-07
      .978338439494D+00  .162687500000D+03  .382827642582D+00 -.533736517983D-08
     -.486448833975D-09  .258000000000D+03  .215800000000D+04
      .312000000000D+01  .000000000000D+00 -.116415321827D-08  .000000000000D+00
      .183720000000D+06
E 2 2021 05 18 03 00 00  .219812383875D-03  .255795384874D-11  .000000000000D+00
      .500000000000D+02  .689062500000D+02  .279011621954D-08  .263235865292D+01
      .312365591526D-05  .253746635281D-03  .857003033161D-05  .544060396004D+04
      .183600000000D+06  .577419996262D-07  .678743000233D+00 -.242143869400D-07
      .978338170317D+00  .163562500000D+03  .382792513530D+00 -.533379360248D-08
     -.487877464912D-09  .513000000000D+03  .215800000000D+04
      .312000000000D+01  .000000000000D+00 -.116415321827D-08 -.186264514923D-08
      .184285000000D+06
E 2 2021 05 18 03 00 00  .219812383875D-03  .255795384874D-11  .000000000000D+00
      .500000000000D+02  .689062500000D+02  .279011621954D-08  .263235865292D+01
      .312365591526D-05  .253746635281D-03  .857003033161D-05  .544060396004D+04
      .183600000000D+06  .577419996262D-07  .678743000233D+00 -.242143869400D-07
      .978338170317D+00  .163562500000D+03  .382792513530D+00 -.533379360248D-08
     -.487877464912D-09  .516000000000D+03  .215800000000D+04
      .312000000000D+01  .000000000000D+00 -.116415321827D-08 -.186264514923D-08
      .184264000000D+06
E 2 2021 05 18 03 00 00  .219813664444D-03  .257216470345D-11  .000000000000D+00
      .500000000000D+02  .689062500000D+02  .279011621954D-08  .263235865292D+01
      .312365591526D-05  .253746635281D-03  .857003033161D-05  .544060396004D+04
      .183600000000D+06  .577419996262D-07  .678743000233D+00 -.242143869400D-07
      .978338170317D+00  .163562500000D+03  .382792513530D+00 -.533379360248D-08
     -.487877464912D-09  .258000000000D+03  .215800000000D+04
      .312000000000D+01  .000000000000D+00 -.116415321827D-08  .000000000000D+00
      .184320000000D+06
E 2 2021 05 18 03 10 00  .219814071897D-03  .255795384874D-11  .000000000000D+00
      .510000000000D+02  .700625000000D+02  .278797327313D-08  .270682530566D+01
      .319071114063D-05  .253581092693D-03  .852905213833D-05  .544060429573D+04
      .184200000000D+06  .577419996262D-07  .678739793517D+00 -.186264514923D-07
      .978337902603D+00  .164281250000D+03  .382711516145D+00 -.533022202514D-08
     -.489306095849D-09  .513000000000D+03  .215800000000D+04
      .312000000000D+01  .000000000000D+00 -.116415321827D-08 -.186264514923D-08
      .184885000000D+06
E 2 2021 05 18 03 10 00  .219814071897D-03  .255795384874D-11  .000000000000D+00
      .510000000000D+02  .700625000000D+02  .278797327313D-08  .270682530566D+01
      .319071114063D-05  .253581092693D-03  .852905213833D-05  .544060429573D+04
      .184200000000D+06  .577419996262D-07  .678739793517D+00 -.186264514923D-07
      .978337902603D+00  .164281250000D+03  .382711516145D+00 -.533022202514D-08
     -.489306095849D-09  .516000000000D+03  .215800000000D+04
      .312000000000D+01  .000000000000D+00 -.116415321827D-08 -.186264514923D-08
      .184864000000D+06
E 2 2021 05 18 03 10 00  .219815352466D-03  .257216470345D-11  .000000000000D+00
      .510000000000D+02  .700625000000D+02  .278797327313D-08  .270682530566D+01
      .319071114063D-05  .253581092693D-03  .852905213833D-05  .544060429573D+04
      .184200000000D+06  .577419996262D-07  .678739793517D+00 -.186264514923D-07
      .978337902603D+00  .164281250000D+03  .382711516145D+00 -.533022202514D-08
     -.489306095849D-09  .258000000000D+03  .215800000000D+04
      .312000000000D+01  .000000000000D+00 -.116415321827D-08  .000000000000D+00
      .184920000000D+06
E 2 2021 05 18 03 20 00  .219815759920D-03  .257216470345D-11  .000000000000D+00
      .520000000000D+02  .711875000000D+02  .278618748446D-08  .278133504280D+01
      .325962901115D-05  .253428821452D-03  .849924981594D-05  .544060460663D+04
      .184800000000D+06  .577419996262D-07  .678736595578D+00 -.130385160446D-07
      .978337630501D+00  .164750000000D+03  .382587409490D+00 -.532736476327D-08
     -.491091884520D-09  .513000000000D+03  .215800000000D+04
      .312000000000D+01  .000000000000D+00 -.116415321827D-08 -.186264514923D-08
      .185485000000D+06
E 2 2021 05 18 03 20 00  .219815759920D-03  .257216470345D-11  .000000000000D+00
      .520000000000D+02  .711875000000D+02  .278618748446D-08  .278133504280D+01
      .325962901115D-05  .253428821452D-03  .849924981594D-05  .544060460663D+04
      .184800000000D+06  .577419996262D-07  .678736595578D+00 -.130385160446D-07
      .978337630501D+00  .164750000000D+03  .382587409490D+00 -.532736476327D-08
     -.491091884520D-09  .516000000000D+03  .215800000000D+04
      .312000000000D+01  .000000000000D+00 -.116415321827D-08 -.186264514923D-08
      .185464000000D+06
E 2 2021 05 18 03 20 00  .219817098696D-03  .258637555817D-11  .000000000000D+00
      .520000000000D+02  .711875000000D+02  .278618748446D-08  .278133504280D+01
      .325962901115D-05  .253428821452D-03  .849924981594D-05  .544060460663D+04
      .184800000000D+06  .577419996262D-07  .678736595578D+00 -.130385160446D-07
      .978337630501D+00  .164750000000D+03  .382587409490D+00 -.532736476327D-08
     -.491091884520D-09  .258000000000D+03  .215800000000D+04
      .312000000000D+01  .000000000000D+00 -.116415321827D-08  .000000000000D+00
      .185520000000D+06
E 2 2021 05 18 03 30 00  .219817447942D-03  .257216470345D-11  .000000000000D+00
      .530000000000D+02  .722500000000D+02  .278511601126D-08  .285587407048D+01
      .332668423653D-05  .253295293078D-03  .848248600960D-05  .544060488510D+04
      .185400000000D+06  .558793544769D-07  .678733400565D+00 -.931322574615D-08
      .978337355472D+00  .165000000000D+03  .382433984493D+00 -.532450750140D-08
     -.492877673191D-09  .513000000000D+03  .215800000000D+04
      .312000000000D+01  .000000000000D+00 -.116415321827D-08 -.186264514923D-08
      .186085000000D+06
